STARLINK-1363           
1 45568U 20025AP  26068.19024867  .00121445  00000+0  73874-3 0  9994
2 45568  53.0430  40.2129 0008307  56.0535 304.1273 15.76582535325978
TRANSPORTER-12 OBJECT F 
1 62614U 25009F   26068.76753411  .00324599  00000+0  22214-2 0  9995
2 62614  97.3860 159.0379 0006077 265.7860  94.2710 15.73813521 64258
